{
  "type": "FeatureCollection",
  "features": [
    {
      "type": "Feature",
      "properties": {
        "norad_id": 38818,
        "name": "FENGYUN 1C DEB",
        "group": "fengyun-1c-debris",
        "lat": -19.28057101468409,
        "lon": 48.78984653851861,
        "alt_km": 786.5086302008076,
        "timestamp": "2025-12-15T15:53:20.140611+00:00",
        "meta_object_name": "FENGYUN 1C DEB",
        "meta_object_id": "1999-025EVJ",
        "meta_epoch": "2025-12-14T22:27:08.695584",
        "meta_mean_motion": 14.39493128,
        "meta_eccentricity": 0.00885268,
        "meta_inclination": 98.3002,
        "meta_ra_of_asc_node": 45.159,
        "meta_arg_of_pericenter": 92.9316,
        "meta_mean_anomaly": 85.8685,
        "meta_ephemeris_type": 0,
        "meta_classification_type": "U",
        "meta_norad_cat_id": 38818,
        "meta_element_set_no": 999,
        "meta_rev_at_epoch": 67279,
        "meta_bstar": 0.00036465317,
        "meta_mean_motion_dot": 1.147e-05,
        "meta_mean_motion_ddot": 0,
        "tle_line1": "1 38818U 99025EVJ 25348.93551731  .00001147  00000+0  36465-3 0  9998",
        "tle_line2": "2 38818  98.3002  45.1590 0088526  92.9316  85.8685 14.39493128672790"
      },
      "geometry": {
        "type": "Point",
        "coordinates": [
          48.78984653851861,
          -19.28057101468409
        ]
      }
    },
    {
      "type": "Feature",
      "properties": {
        "norad_id": 38819,
        "name": "FENGYUN 1C DEB",
        "group": "fengyun-1c-debris",
        "lat": 81.35548117871039,
        "lon": -111.64940903695191,
        "alt_km": 824.9442963959727,
        "timestamp": "2025-12-15T15:53:20.140620+00:00",
        "meta_object_name": "FENGYUN 1C DEB",
        "meta_object_id": "1999-025EVK",
        "meta_epoch": "2025-12-13T06:01:49.358208",
        "meta_mean_motion": 14.1937346,
        "meta_eccentricity": 0.00797082,
        "meta_inclination": 98.6179,
        "meta_ra_of_asc_node": 340.0506,
        "meta_arg_of_pericenter": 192.9629,
        "meta_mean_anomaly": 187.0477,
        "meta_ephemeris_type": 0,
        "meta_classification_type": "U",
        "meta_norad_cat_id": 38819,
        "meta_element_set_no": 999,
        "meta_rev_at_epoch": 63485,
        "meta_bstar": 0.00062389681,
        "meta_mean_motion_dot": 1.311e-05,
        "meta_mean_motion_ddot": 0,
        "tle_line1": "1 38819U 99025EVK 25347.25126572  .00001311  00000+0  62390-3 0  9993",
        "tle_line2": "2 38819  98.6179 340.0506 0079708 192.9629 187.0477 14.19373460634856"
      },
      "geometry": {
        "type": "Point",
        "coordinates": [
          -111.64940903695191,
          81.35548117871039
        ]
      }
    },
    {
      "type": "Feature",
      "properties": {
        "norad_id": 38824,
        "name": "FENGYUN 1C DEB",
        "group": "fengyun-1c-debris",
        "lat": 62.18633522558778,
        "lon": 105.2602943213476,
        "alt_km": 882.6233187071248,
        "timestamp": "2025-12-15T15:53:20.140629+00:00",
        "meta_object_name": "FENGYUN 1C DEB",
        "meta_object_id": "1999-025EVQ",
        "meta_epoch": "2025-11-20T14:24:21.461760",
        "meta_mean_motion": 14.13875773,
        "meta_eccentricity": 0.00960414,
        "meta_inclination": 99.2955,
        "meta_ra_of_asc_node": 97.2934,
        "meta_arg_of_pericenter": 263.2679,
        "meta_mean_anomaly": 95.7556,
        "meta_ephemeris_type": 0,
        "meta_classification_type": "U",
        "meta_norad_cat_id": 38824,
        "meta_element_set_no": 999,
        "meta_rev_at_epoch": 68824,
        "meta_bstar": 0.0027703315,
        "meta_mean_motion_dot": 5.443e-05,
        "meta_mean_motion_ddot": 0,
        "tle_line1": "1 38824U 99025EVQ 25324.60024840  .00005443  00000+0  27703-2 0  9996",
        "tle_line2": "2 38824  99.2955  97.2934 0096041 263.2679  95.7556 14.13875773688246"
      },
      "geometry": {
        "type": "Point",
        "coordinates": [
          105.2602943213476,
          62.18633522558778
        ]
      }
    },
    {
      "type": "Feature",
      "properties": {
        "norad_id": 38827,
        "name": "FENGYUN 1C DEB",
        "group": "fengyun-1c-debris",
        "lat": 9.985011680957275,
        "lon": -166.01284476317693,
        "alt_km": 890.2694636312408,
        "timestamp": "2025-12-15T15:53:20.140638+00:00",
        "meta_object_name": "FENGYUN 1C DEB",
        "meta_object_id": "1999-025EVT",
        "meta_epoch": "2025-12-13T07:46:35.995872",
        "meta_mean_motion": 14.3286071,
        "meta_eccentricity": 0.02162982,
        "meta_inclination": 98.3875,
        "meta_ra_of_asc_node": 10.2333,
        "meta_arg_of_pericenter": 311.1324,
        "meta_mean_anomaly": 47.1367,
        "meta_ephemeris_type": 0,
        "meta_classification_type": "U",
        "meta_norad_cat_id": 38827,
        "meta_element_set_no": 999,
        "meta_rev_at_epoch": 61068,
        "meta_bstar": 0.0014881637,
        "meta_mean_motion_dot": 5.222e-05,
        "meta_mean_motion_ddot": 0,
        "tle_line1": "1 38827U 99025EVT 25347.32402773  .00005222  00000+0  14882-2 0  9997",
        "tle_line2": "2 38827  98.3875  10.2333 0216298 311.1324  47.1367 14.32860710610686"
      },
      "geometry": {
        "type": "Point",
        "coordinates": [
          -166.01284476317693,
          9.985011680957275
        ]
      }
    },
    {
      "type": "Feature",
      "properties": {
        "norad_id": 38829,
        "name": "FENGYUN 1C DEB",
        "group": "fengyun-1c-debris",
        "lat": -42.49105812333311,
        "lon": 177.4392472036209,
        "alt_km": 896.4744947748659,
        "timestamp": "2025-12-15T15:53:20.140648+00:00",
        "meta_object_name": "FENGYUN 1C DEB",
        "meta_object_id": "1999-025EVV",
        "meta_epoch": "2025-12-12T18:40:24.452256",
        "meta_mean_motion": 14.09216687,
        "meta_eccentricity": 0.0041168,
        "meta_inclination": 98.7498,
        "meta_ra_of_asc_node": 2.7487,
        "meta_arg_of_pericenter": 30.5355,
        "meta_mean_anomaly": 329.82,
        "meta_ephemeris_type": 0,
        "meta_classification_type": "U",
        "meta_norad_cat_id": 38829,
        "meta_element_set_no": 999,
        "meta_rev_at_epoch": 64133,
        "meta_bstar": 0.00086306808,
        "meta_mean_motion_dot": 1.47e-05,
        "meta_mean_motion_ddot": 0,
        "tle_line1": "1 38829U 99025EVV 25346.77806079  .00001470  00000+0  86307-3 0  9997",
        "tle_line2": "2 38829  98.7498   2.7487 0041168  30.5355 329.8200 14.09216687641331"
      },
      "geometry": {
        "type": "Point",
        "coordinates": [
          177.4392472036209,
          -42.49105812333311
        ]
      }
    },
    {
      "type": "Feature",
      "properties": {
        "norad_id": 38832,
        "name": "FENGYUN 1C DEB",
        "group": "fengyun-1c-debris",
        "lat": -68.78581537671417,
        "lon": -170.7843252331234,
        "alt_km": 934.8216411147159,
        "timestamp": "2025-12-15T15:53:20.140656+00:00",
        "meta_object_name": "FENGYUN 1C DEB",
        "meta_object_id": "1999-025EVY",
        "meta_epoch": "2025-12-06T01:35:41.081280",
        "meta_mean_motion": 14.04461067,
        "meta_eccentricity": 0.00842955,
        "meta_inclination": 99.2666,
        "meta_ra_of_asc_node": 24.2995,
        "meta_arg_of_pericenter": 61.4582,
        "meta_mean_anomaly": 299.5038,
        "meta_ephemeris_type": 0,
        "meta_classification_type": "U",
        "meta_norad_cat_id": 38832,
        "meta_element_set_no": 999,
        "meta_rev_at_epoch": 63664,
        "meta_bstar": 0.0018423355,
        "meta_mean_motion_dot": 2.987e-05,
        "meta_mean_motion_ddot": 0,
        "tle_line1": "1 38832U 99025EVY 25340.06644770  .00002987  00000+0  18423-2 0  9992",
        "tle_line2": "2 38832  99.2666  24.2995 0084295  61.4582 299.5038 14.04461067636643"
      },
      "geometry": {
        "type": "Point",
        "coordinates": [
          -170.7843252331234,
          -68.78581537671417
        ]
      }
    },
    {
      "type": "Feature",
      "properties": {
        "norad_id": 39537,
        "name": "FENGYUN 1C DEB",
        "group": "fengyun-1c-debris",
        "lat": -59.69130099805907,
        "lon": -60.676255720552504,
        "alt_km": 959.5115905823695,
        "timestamp": "2025-12-15T15:53:20.140666+00:00",
        "meta_object_name": "FENGYUN 1C DEB",
        "meta_object_id": "1999-025EWE",
        "meta_epoch": "2025-12-08T16:10:28.003008",
        "meta_mean_motion": 13.84154142,
        "meta_eccentricity": 0.01774078,
        "meta_inclination": 99.1538,
        "meta_ra_of_asc_node": 128.5243,
        "meta_arg_of_pericenter": 352.1329,
        "meta_mean_anomaly": 7.7052,
        "meta_ephemeris_type": 0,
        "meta_classification_type": "U",
        "meta_norad_cat_id": 39537,
        "meta_element_set_no": 999,
        "meta_rev_at_epoch": 59200,
        "meta_bstar": 0.0019509183,
        "meta_mean_motion_dot": 2.413e-05,
        "meta_mean_motion_ddot": 0,
        "tle_line1": "1 39537U 99025EWE 25342.67393522  .00002413  00000+0  19509-2 0  9990",
        "tle_line2": "2 39537  99.1538 128.5243 0177407 352.1329   7.7052 13.84154142592000"
      },
      "geometry": {
        "type": "Point",
        "coordinates": [
          -60.676255720552504,
          -59.69130099805907
        ]
      }
    }
  ]
}